[
{"message":"invalid area","data":{"type":"Feature","properties":{"name":"Robbinsville Township","is_in":"USA, New Jersey","place":"township","boundary":"administrative","old_name":"Washington Township","admin_level":"8","border_type":"township","is_in:state":"New Jersey","is_in:county":"Mercer, NJ","is_in:country":"USA","is_in:iso_3166_2":"US:NJ","is_in:state_code":"NJ","is_in:country_code":"US"},"name":"Robbinsville Township"}}
,
{"message":"Area is missing a name tag","data":{"type":"Feature","properties":{"source":"TIGER/Line® 2009 Place Shapefiles (http://www.census.gov/geo/www/tiger/)","boundary":"administrative","admin_level":"8"}}}
,
{"message":"Area is missing a name tag","data":{"type":"Feature","properties":{"is_in":"USA, Delaware","place":"village","source":"TIGER/Line® 2008 Place Shapefiles (http://www.census.gov/geo/www/tiger/)","boundary":"administrative","tiger:CPI":"N","wikipedia":"en:Ardencroft, Delaware","place_name":"Ardencroft","tiger:LSAD":"47","tiger:NAME":"Ardencroft","admin_level":"8","border_type":"village","is_in:state":"Delaware","tiger:MTFCC":"G4110","is_in:country":"USA","tiger:CLASSFP":"C1","tiger:PCICBSA":"N","tiger:PLACEFP":"01530","tiger:PLACENS":"02391521","tiger:PLCIDFP":"1001530","tiger:STATEFP":"10","tiger:FUNCSTAT":"A","tiger:NAMELSAD":"Ardencroft village","tiger:PCINECTA":"N","tiger:reviewed":"no","is_in:iso_3166_2":"US:DE","is_in:state_code":"DE","is_in:country_code":"US"}}}
,
{"message":"Area is missing a name tag","data":{"type":"Feature","properties":{"source":"TIGER/Line® 2008 Place Shapefiles (http://www.census.gov/geo/www/tiger/)","boundary":"administrative","created_by":"polyshp2osm-multipoly","admin_level":"8"}}}
,
{"message":"Area is missing a name tag","data":{"type":"Feature","properties":{"source":"TIGER/Line® 2008 Place Shapefiles (http://www.census.gov/geo/www/tiger/)","boundary":"administrative","admin_level":"8"}}}
,
{"message":"Area is missing a name tag","data":{"type":"Feature","properties":{"source":"TIGER/Line® 2008 Place Shapefiles (http://www.census.gov/geo/www/tiger/)","boundary":"administrative","created_by":"polyshp2osm-multipoly","admin_level":"8"}}}
,
{"message":"Area is missing a name tag","data":{"type":"Feature","properties":{"source":"TIGER/Line® 2008 Place Shapefiles (http://www.census.gov/geo/www/tiger/)","boundary":"administrative","admin_level":"8"}}}
,
{"message":"Relation missing way members","data":{"id":117170,"name":"New Castle","properties":{"name":"New Castle","type":"boundary","boundary":"administrative","land_area":"administrative","wikipedia":"en:Newcastle, Delaware","admin_level":"8"},"members":[{"type":"w","ref":33502442,"role":"outer","missing":true}],"missingWayCount":1}}
,
{"message":"Relation missing way members","data":{"id":162109,"name":"Pennsylvania","properties":{"ref":"PA","name":"Pennsylvania","type":"boundary","name:af":"Pennsilvanië","name:ar":"بنسيلفانيا","name:az":"Pensilvaniya","name:bg":"Пенсилвания","name:bn":"পেন্সিল্‌ভেনিয়া","name:ca":"Pennsilvània","name:cs":"Pensylvánie","name:cy":"Pensylfania","name:de":"Pennsylvanien","name:el":"Πενσυλβάνια","name:en":"Pennsylvania","name:eo":"Pensilvanio","name:es":"Pensilvania","name:fa":"پنسیلوانیا","name:fr":"Pennsylvanie","name:he":"פנסילבניה","name:ht":"Pènsilvani","name:hy":"Պենսիլվանիա","name:is":"Pennsylvanía","name:ja":"ペンシルベニア州","name:ka":"პენსილვანია","name:ko":"펜실베이니아","name:kw":"Pennsylvani","name:la":"Pennsilvania","name:lt":"Pensilvanija","name:lv":"Pensilvānija","name:ml":"പെന്‍‌സില്‍‌വാനിയ","name:mn":"Пеннсилвани","name:mr":"पेनसिल्व्हेनिया","name:nv":"Pénsówéíniyah Hahoodzo","name:oc":"Pensilvània","name:os":"Пенсильвани","name:pl":"Pensylwania","name:pt":"Pensilvânia","name:qu":"Pennsylvania suyu","name:ru":"Пенсильвания","name:sk":"Pensylvánia","name:sl":"Pensilvanija","name:sr":"Пенсилванија","name:ta":"பென்சில்வேனியா","name:tr":"Pensilvanya","name:uk":"Пенсильванія","name:ur":"پنسلوانیا","name:uz":"Pennsilvaniya","name:yi":"פענסילוועניע","name:zh":"賓夕法尼亞州","boundary":"administrative","name:arc":"ܦܢܣܝܠܒܐܢܝܐ","name:hak":"Pîn-sé-fap-nì-â","name:haw":"Penekelewinia","name:lad":"Pennsilvania","name:pdc":"Pennsilfaani","name:szl":"Pynsylwańijo","ref:fips":"42","timezone":"America/New_York","wikidata":"Q1400","ISO3166-2":"US-PA","wikipedia":"en:Pennsylvania","short_name":"penna","admin_level":"4","official_name":"Commonwealth of Pennsylvania"},"members":[{"type":"w","ref":261150538,"role":"outer","missing":true},{"type":"w","ref":261150519,"role":"outer","missing":true},{"type":"w","ref":261150527,"role":"outer","missing":true},{"type":"w","ref":62038017,"role":"outer","missing":true},{"type":"w","ref":62037785,"role":"outer","missing":true},{"type":"w","ref":62037790,"role":"outer","missing":true},{"type":"w","ref":37563389,"role":"outer","missing":true},{"type":"w","ref":37563390,"role":"outer","missing":true},{"type":"w","ref":37563436,"role":"outer","missing":true},{"type":"w","ref":37568620,"role":"outer","missing":true},{"type":"w","ref":37564743,"role":"outer","missing":true},{"type":"w","ref":62014428,"role":"outer","missing":true},{"type":"w","ref":62014474,"role":"outer","missing":true},{"type":"w","ref":62014514,"role":"outer","missing":true},{"type":"w","ref":62014574,"role":"outer","missing":true},{"type":"w","ref":51252847,"role":"outer","missing":true},{"type":"w","ref":229317930,"role":"outer","missing":true},{"type":"w","ref":229317933,"role":"outer","missing":true},{"type":"w","ref":229317928,"role":"outer","missing":true},{"type":"w","ref":137725545,"role":"outer","missing":true},{"type":"w","ref":137725544,"role":"outer","missing":true},{"type":"w","ref":137725547,"role":"outer","missing":true},{"type":"w","ref":137725546,"role":"outer","missing":true},{"type":"w","ref":9650669,"role":"outer","missing":true},{"type":"w","ref":96321087,"role":"outer","missing":true},{"type":"w","ref":288207917,"role":"outer","missing":true},{"type":"w","ref":96321081,"role":"outer","missing":true},{"type":"w","ref":229196758,"role":"outer","missing":true},{"type":"w","ref":229190535,"role":"outer","missing":true},{"type":"w","ref":229190543,"role":"outer","missing":true},{"type":"w","ref":229190544,"role":"outer","missing":true},{"type":"w","ref":261150540,"role":"outer","missing":true},{"type":"w","ref":261150541,"role":"outer","missing":true},{"type":"w","ref":261150530,"role":"outer","missing":true},{"type":"w","ref":261150525,"role":"outer","missing":true},{"type":"w","ref":261150547,"role":"outer","missing":true},{"type":"w","ref":261150536,"role":"outer","missing":true},{"type":"w","ref":261150534,"role":"outer","missing":true},{"type":"w","ref":261150532,"role":"outer","missing":true},{"type":"w","ref":261150539,"role":"outer","missing":true},{"type":"w","ref":261150537,"role":"outer","missing":true},{"type":"w","ref":261150533,"role":"outer","missing":true},{"type":"w","ref":261150544,"role":"outer","missing":true},{"type":"w","ref":261150531,"role":"outer","missing":true},{"type":"w","ref":261150542,"role":"outer","missing":true},{"type":"w","ref":261150545,"role":"outer","missing":true},{"type":"w","ref":261150529,"role":"outer","missing":true},{"type":"w","ref":261150535,"role":"outer","missing":true},{"type":"w","ref":261150546,"role":"outer","missing":true},{"type":"w","ref":261150543,"role":"outer","missing":true}],"missingWayCount":50}}
,
{"message":"Relation missing way members","data":{"id":162110,"name":"Delaware","properties":{"ref":"DE","name":"Delaware","type":"boundary","name:ar":"ديلاوير","name:bg":"Делауеър","name:bn":"ডেলাওয়্যার","name:en":"Delaware","name:fa":"دلاویر","name:he":"דלאוור","name:hi":"डेलावर","name:ht":"Delawè","name:hy":"Դելավեր","name:ik":"Delauaare","name:ja":"デラウェア州","name:ka":"დელავერი","name:ko":"델라웨어","name:lt":"Delaveras","name:ml":"ഡെലവെയര്‍","name:mn":"Делавар","name:mr":"डेलावेर","name:nv":"Déláwee Hahoodzo","name:pl":"Delaware","name:ru":"Делавэр","name:sr":"Делавер","name:ta":"டெலவெயர்","name:th":"รัฐเดลาแวร์","name:uk":"Делавер","name:ur":"ڈیلاویئر","name:yi":"דעלעווער","name:zh":"特拉华州","boundary":"administrative","name:arc":"ܕܝܠܐܘܝܪ","name:hak":"Thi̍t-lâ-ngá","name:haw":"Kelawea","ref:fips":"10","timezone":"America/New_York","wikidata":"Q1393","ISO3166-2":"US-DE","wikipedia":"en:Delaware","admin_level":"4"},"members":[{"type":"w","ref":9650692,"role":"outer","missing":true},{"type":"w","ref":170060124,"role":"outer","missing":true},{"type":"w","ref":170117278,"role":"outer","missing":true},{"type":"w","ref":170117274,"role":"outer","missing":true},{"type":"w","ref":170060123,"role":"outer","missing":true},{"type":"w","ref":138382403,"role":"outer","missing":true},{"type":"w","ref":9650669,"role":"outer","missing":true},{"type":"w","ref":96321087,"role":"outer","missing":true},{"type":"w","ref":288207917,"role":"outer","missing":true},{"type":"w","ref":96321081,"role":"outer","missing":true},{"type":"w","ref":229196758,"role":"outer","missing":true},{"type":"w","ref":229190535,"role":"outer","missing":true},{"type":"w","ref":229190543,"role":"outer","missing":true},{"type":"w","ref":229190544,"role":"outer","missing":true}],"missingWayCount":14}}
,
{"message":"Relation missing way members","data":{"id":170336,"name":"Hammonton","properties":{"name":"Hammonton","type":"boundary","is_in":"USA, New Jersey","place":"town","source":"TIGER/Line® 2008 Place Shapefiles (http://www.census.gov/geo/www/tiger/)","boundary":"administrative","tiger:CPI":"Y","wikipedia":"en:Hammonton, New Jersey","tiger:LSAD":"43","tiger:NAME":"Hammonton","admin_level":"8","border_type":"town","is_in:state":"New Jersey","tiger:MTFCC":"G4110","is_in:country":"USA","tiger:CLASSFP":"C5","tiger:PCICBSA":"Y","tiger:PLACEFP":"29430","tiger:PLACENS":"00885242","tiger:PLCIDFP":"3429430","tiger:STATEFP":"34","tiger:FUNCSTAT":"A","tiger:NAMELSAD":"Hammonton town","tiger:PCINECTA":"N","is_in:iso_3166_2":"US:NJ","is_in:state_code":"NJ","is_in:country_code":"US"},"members":[{"type":"w","ref":37560632,"role":"outer","missing":true},{"type":"w","ref":62014503,"role":"outer","missing":true},{"type":"w","ref":62014466,"role":"outer","missing":true},{"type":"w","ref":62037965,"role":"outer","missing":true},{"type":"w","ref":62038120,"role":"outer","missing":true}],"missingWayCount":5}}
,
{"message":"Relation missing way members","data":{"id":170841,"name":"Wrightstown","properties":{"name":"Wrightstown","type":"boundary","is_in":"USA, New Jersey","place":"borough","source":"TIGER/Line® 2008 Place Shapefiles (http://www.census.gov/geo/www/tiger/)","boundary":"administrative","tiger:CPI":"N","wikipedia":"en:Wrightstown, New Jersey","tiger:LSAD":"21","tiger:NAME":"Wrightstown","admin_level":"8","border_type":"borough","is_in:state":"New Jersey","tiger:MTFCC":"G4110","is_in:county":"Burlington, NJ","is_in:country":"USA","tiger:CLASSFP":"C5","tiger:PCICBSA":"N","tiger:PLACEFP":"82960","tiger:PLACENS":"00885453","tiger:PLCIDFP":"3482960","tiger:STATEFP":"34","tiger:FUNCSTAT":"A","tiger:NAMELSAD":"Wrightstown borough","tiger:PCINECTA":"N","is_in:iso_3166_2":"US:NJ","is_in:state_code":"NJ","is_in:country_code":"US"},"members":[{"type":"w","ref":37563376,"role":"outer","missing":true},{"type":"w","ref":37563245,"role":"outer","missing":true},{"type":"w","ref":62038127,"role":"outer","missing":true},{"type":"w","ref":37563244,"role":"outer","missing":true}],"missingWayCount":4}}
,
{"message":"Relation missing way members","data":{"id":170934,"name":"National Park","properties":{"name":"National Park","type":"boundary","is_in":"USA, New Jersey","place":"borough","source":"TIGER/Line® 2008 Place Shapefiles (http://www.census.gov/geo/www/tiger/)","boundary":"administrative","tiger:CPI":"N","wikipedia":"en:National Park, New Jersey","tiger:LSAD":"21","tiger:NAME":"National Park","admin_level":"8","border_type":"borough","is_in:state":"New Jersey","tiger:MTFCC":"G4110","is_in:country":"USA","tiger:CLASSFP":"C5","tiger:PCICBSA":"N","tiger:PLACEFP":"49680","tiger:PLACENS":"00885314","tiger:PLCIDFP":"3449680","tiger:STATEFP":"34","tiger:FUNCSTAT":"A","tiger:NAMELSAD":"National Park borough","tiger:PCINECTA":"N","is_in:iso_3166_2":"US:NJ","is_in:state_code":"NJ","is_in:country_code":"US"},"members":[{"type":"w","ref":62014514,"role":"outer","missing":true}],"missingWayCount":1}}
,
{"message":"Relation missing way members","data":{"id":187353,"name":"Souderton","properties":{"name":"Souderton","type":"boundary","is_in":"USA, Pennsylvania","place":"borough","source":"TIGER/Line® 2008 Place Shapefiles (http://www.census.gov/geo/www/tiger/)","boundary":"administrative","tiger:CPI":"N","wikipedia":"en:Souderton, Pennsylvania","tiger:LSAD":"21","tiger:NAME":"Souderton","admin_level":"8","border_type":"borough","is_in:state":"Pennsylvania","tiger:MTFCC":"G4110","is_in:country":"USA","tiger:CLASSFP":"C5","tiger:PCICBSA":"N","tiger:PLACEFP":"71856","tiger:PLACENS":"01215483","tiger:PLCIDFP":"4271856","tiger:STATEFP":"42","tiger:FUNCSTAT":"A","tiger:NAMELSAD":"Souderton borough","tiger:PCINECTA":"N","is_in:iso_3166_2":"US:PA","is_in:state_code":"PA","is_in:country_code":"US"},"members":[{"type":"w","ref":231612944,"role":"outer","missing":true}],"missingWayCount":1}}
,
{"message":"Relation missing way members","data":{"id":187615,"name":"Trainer","properties":{"name":"Trainer","type":"boundary","is_in":"USA, Pennsylvania","place":"borough","source":"TIGER/Line® 2008 Place Shapefiles (http://www.census.gov/geo/www/tiger/)","boundary":"administrative","tiger:CPI":"N","wikipedia":"en:Trainer, Pennsylvania","tiger:LSAD":"21","tiger:NAME":"Trainer","admin_level":"8","border_type":"borough","is_in:state":"Pennsylvania","tiger:MTFCC":"G4110","is_in:country":"USA","tiger:CLASSFP":"C5","tiger:PCICBSA":"N","tiger:PLACEFP":"77288","tiger:PLACENS":"01215198","tiger:PLCIDFP":"4277288","tiger:STATEFP":"42","tiger:FUNCSTAT":"A","tiger:NAMELSAD":"Trainer borough","tiger:PCINECTA":"N","is_in:iso_3166_2":"US:PA","is_in:state_code":"PA","is_in:country_code":"US"},"members":[{"type":"w","ref":38486083,"role":"outer","missing":true},{"type":"w","ref":288143382,"role":"outer","missing":true},{"type":"w","ref":38486151,"role":"outer","missing":true},{"type":"w","ref":38486149,"role":"outer","missing":true},{"type":"w","ref":196015032,"role":"outer","missing":true},{"type":"w","ref":137725547,"role":"outer","missing":true},{"type":"w","ref":229112046,"role":"outer","missing":true}],"missingWayCount":7}}
,
{"message":"Relation missing way members","data":{"id":188518,"name":"Doylestown","properties":{"name":"Doylestown","type":"boundary","is_in":"USA, Pennsylvania","place":"borough","source":"TIGER/Line® 2008 Place Shapefiles (http://www.census.gov/geo/www/tiger/)","boundary":"administrative","tiger:CPI":"N","wikipedia":"en:Doylestown, Pennsylvania","tiger:LSAD":"21","tiger:NAME":"Doylestown","admin_level":"8","border_type":"borough","is_in:state":"Pennsylvania","tiger:MTFCC":"G4110","is_in:country":"USA","tiger:CLASSFP":"C5","tiger:PCICBSA":"N","tiger:PLACEFP":"19784","tiger:PLACENS":"01214964","tiger:PLCIDFP":"4219784","tiger:STATEFP":"42","tiger:FUNCSTAT":"A","tiger:NAMELSAD":"Doylestown borough","tiger:PCINECTA":"N","is_in:iso_3166_2":"US:PA","is_in:state_code":"PA","is_in:country_code":"US"},"members":[{"type":"w","ref":262267836,"role":"outer","missing":true}],"missingWayCount":1}}
,
{"message":"Relation missing way members","data":{"id":224951,"name":"New Jersey","properties":{"ref":"NJ","name":"New Jersey","type":"boundary","name:an":"Nueba Jersey","name:ar":"نيو جيرسي","name:az":"Nyu-Cersi","name:bg":"Ню Джърси","name:bn":"নিউ জার্সি","name:ca":"Nova Jersey","name:cv":"Çĕнĕ Джерси","name:el":"Νιού Τζέρσεϊ","name:en":"New Jersey","name:eo":"Nov-Ĵerzejo","name:es":"Nueva Jersey","name:fa":"نیوجرسی","name:fy":"Nij Jersey","name:gd":"Jersey Nuadh","name:gn":"Pyahu Jersey","name:gv":"Jersee Noa","name:he":"ניו ג'רזי","name:hi":"नया जर्सी","name:ht":"Nou Jèze","name:hy":"Նյու Ջերսի","name:ik":"Tchiaq Jersey","name:ja":"ニュージャージー州","name:ka":"ნიუ-ჯერსი","name:ko":"뉴저지","name:kw":"Jersi Nowydh","name:la":"Nova Caesarea","name:lt":"Naujasis Džersis","name:lv":"Ņūdžersija","name:ml":"ന്യൂ ജെഴ്സി","name:mr":"न्यू जर्सी","name:nv":"Niijéízii Hahoodzo","name:oc":"Nòva Jersey","name:os":"Нью-Джерси","name:pl":"New Jersey","name:pt":"Nova Jérsei","name:ru":"Нью-Джерси","name:sr":"Њу Џерзи","name:ta":"நியூ செர்சி","name:te":"న్యూజెర్సీ","name:uk":"Нью-Джерсі","name:ur":"نیو جرسی","name:uz":"N'yu-Jersi","name:yi":"ניו זשערסי","name:zh":"新泽西州","boundary":"administrative","name:ang":"Nīwe Cēsarēa","name:arc":"ܢܝܘ ܓܝܪܣܝ","name:ast":"Nueva Jersey","name:hak":"Néu Tset-sî","name:haw":"Nū ‘Ieleke","name:lad":"Nueva Jersey","name:nah":"Yancuīc Jersey","name:pdc":"Nei-Schaersi","ref:fips":"34","timezone":"America/New_York","wikidata":"Q1408","ISO3166-2":"US-NJ","wikipedia":"en:New Jersey","admin_level":"4"},"members":[{"type":"n","ref":158860252,"role":"admin_centre"},{"type":"w","ref":261150540,"role":"outer","missing":true},{"type":"w","ref":261150541,"role":"outer","missing":true},{"type":"w","ref":261150530,"role":"outer","missing":true},{"type":"w","ref":261150525,"role":"outer","missing":true},{"type":"w","ref":261150547,"role":"outer","missing":true},{"type":"w","ref":261150536,"role":"outer","missing":true},{"type":"w","ref":261150534,"role":"outer","missing":true},{"type":"w","ref":261150532,"role":"outer","missing":true},{"type":"w","ref":261150539,"role":"outer","missing":true},{"type":"w","ref":261150537,"role":"outer","missing":true},{"type":"w","ref":261150533,"role":"outer","missing":true},{"type":"w","ref":261150544,"role":"outer","missing":true},{"type":"w","ref":261150531,"role":"outer","missing":true},{"type":"w","ref":261150542,"role":"outer","missing":true},{"type":"w","ref":261150545,"role":"outer","missing":true},{"type":"w","ref":261150529,"role":"outer","missing":true},{"type":"w","ref":261150535,"role":"outer","missing":true},{"type":"w","ref":261150546,"role":"outer","missing":true},{"type":"w","ref":261150543,"role":"outer","missing":true},{"type":"w","ref":261150538,"role":"outer","missing":true},{"type":"w","ref":261150519,"role":"outer","missing":true},{"type":"w","ref":261150527,"role":"outer","missing":true},{"type":"w","ref":62038017,"role":"outer","missing":true},{"type":"w","ref":62037785,"role":"outer","missing":true},{"type":"w","ref":62037790,"role":"outer","missing":true},{"type":"w","ref":37563389,"role":"outer","missing":true},{"type":"w","ref":37563390,"role":"outer","missing":true},{"type":"w","ref":37563436,"role":"outer","missing":true},{"type":"w","ref":37568620,"role":"outer","missing":true},{"type":"w","ref":37564743,"role":"outer","missing":true},{"type":"w","ref":62014428,"role":"outer","missing":true},{"type":"w","ref":62014474,"role":"outer","missing":true},{"type":"w","ref":62014514,"role":"outer","missing":true},{"type":"w","ref":62014574,"role":"outer","missing":true},{"type":"w","ref":51252847,"role":"outer","missing":true},{"type":"w","ref":229317930,"role":"outer","missing":true},{"type":"w","ref":229317933,"role":"outer","missing":true},{"type":"w","ref":229317928,"role":"outer","missing":true},{"type":"w","ref":137725545,"role":"outer","missing":true},{"type":"w","ref":137725544,"role":"outer","missing":true},{"type":"w","ref":137725547,"role":"outer","missing":true},{"type":"w","ref":137725546,"role":"outer","missing":true},{"type":"w","ref":138382403,"role":"outer","missing":true},{"type":"w","ref":170060123,"role":"outer","missing":true},{"type":"w","ref":170117274,"role":"outer","missing":true},{"type":"w","ref":170117278,"role":"outer","missing":true},{"type":"w","ref":170060124,"role":"outer","missing":true},{"type":"w","ref":9650692,"role":"outer","missing":true}],"missingWayCount":48}}
,
{"message":"Relation missing way members","data":{"id":369472,"name":"Wilmington","properties":{"name":"Wilmington","type":"boundary","is_in":"USA, Delaware","place":"city","source":"TIGER/Line® 2008 Place Shapefiles (http://www.census.gov/geo/www/tiger/);TIGER/Line® 2008 Place Shapefiles (http://www.census.gov/geo/www/tiger/);image","boundary":"administrative","wikipedia":"en:Wilmington, Delaware","place_name":"Wilmington","source_ref":"yahoo aerial imagery","admin_level":"8","border_type":"city","is_in:state":"Delaware","wikipedia:en":"Wilmington,_Delaware","is_in:country":"USA","is_in:iso_3166_2":"US:DE","is_in:state_code":"DE","is_in:country_code":"US"},"members":[{"type":"w","ref":46944825,"role":"outer","missing":true},{"type":"w","ref":170060126,"role":"outer","missing":true},{"type":"w","ref":170060122,"role":"outer","missing":true},{"type":"w","ref":170060125,"role":"outer","missing":true},{"type":"w","ref":170117274,"role":"outer","missing":true},{"type":"w","ref":170117278,"role":"outer","missing":true},{"type":"w","ref":170060124,"role":"outer","missing":true}],"missingWayCount":7}}
,
{"message":"Relation missing way members","data":{"id":417832,"name":"Chester County","properties":{"name":"Chester County","type":"boundary","is_in":"USA, Pennsylvania","boundary":"administrative","wikipedia":"en:Chester County, Pennsylvania","admin_level":"6","attribution":"USGS 2001 County Boundary","border_type":"county","is_in:state":"Pennsylvania","authoritative":"yes","is_in:country":"USA","nist:fips_code":"42029","nist:state_fips":"42","is_in:iso_3166_2":"US:PA","is_in:state_code":"PA","is_in:country_code":"US"},"members":[{"type":"w","ref":228257770,"role":"outer","missing":true},{"type":"w","ref":228257767,"role":"outer","missing":true},{"type":"w","ref":228249056,"role":"outer","missing":true},{"type":"w","ref":228257771,"role":"outer","missing":true},{"type":"w","ref":228247246,"role":"outer","missing":true},{"type":"w","ref":228247258,"role":"outer","missing":true},{"type":"w","ref":229321851,"role":"outer","missing":true},{"type":"w","ref":229321864,"role":"outer","missing":true},{"type":"w","ref":229321865,"role":"outer","missing":true},{"type":"w","ref":228875040,"role":"outer","missing":true},{"type":"w","ref":228173530,"role":"outer","missing":true},{"type":"w","ref":185503610,"role":"outer","missing":true},{"type":"w","ref":185503973,"role":"outer","missing":true},{"type":"w","ref":296545884,"role":"outer","missing":true},{"type":"w","ref":296505133,"role":"outer","missing":true},{"type":"w","ref":296505131,"role":"outer","missing":true},{"type":"w","ref":137061173,"role":"outer","missing":true},{"type":"w","ref":137553192,"role":"outer","missing":true},{"type":"w","ref":137530784,"role":"outer","missing":true},{"type":"w","ref":137530778,"role":"outer","missing":true},{"type":"w","ref":137491079,"role":"outer","missing":true},{"type":"w","ref":137486190,"role":"outer","missing":true},{"type":"w","ref":137486238,"role":"outer","missing":true},{"type":"w","ref":137486300,"role":"outer","missing":true},{"type":"w","ref":228318434,"role":"outer","missing":true},{"type":"w","ref":228318431,"role":"outer","missing":true}],"missingWayCount":26}}
,
{"message":"Relation missing way members","data":{"id":417843,"name":"Bucks County","properties":{"name":"Bucks County","type":"boundary","is_in":"USA, Pennsylvania","boundary":"administrative","wikipedia":"en:Bucks County, Pennsylvania","admin_level":"6","attribution":"USGS 2001 County Boundary","is_in:state":"Pennsylvania","authoritative":"yes","is_in:country":"USA","nist:fips_code":"42017","nist:state_fips":"42","is_in:iso_3166_2":"US:PA","is_in:state_code":"PA","is_in:country_code":"US"},"members":[{"type":"w","ref":262267769,"role":"outer","missing":true},{"type":"w","ref":262267766,"role":"outer","missing":true},{"type":"w","ref":262267815,"role":"outer","missing":true},{"type":"w","ref":262267829,"role":"outer","missing":true},{"type":"w","ref":262267794,"role":"outer","missing":true},{"type":"w","ref":262267803,"role":"outer","missing":true},{"type":"w","ref":262267799,"role":"outer","missing":true},{"type":"w","ref":262267795,"role":"outer","missing":true},{"type":"w","ref":262267825,"role":"outer","missing":true},{"type":"w","ref":262267819,"role":"outer","missing":true},{"type":"w","ref":230363011,"role":"outer","missing":true},{"type":"w","ref":261150583,"role":"outer","missing":true},{"type":"w","ref":261150620,"role":"outer","missing":true},{"type":"w","ref":261150571,"role":"outer","missing":true},{"type":"w","ref":261150527,"role":"outer","missing":true},{"type":"w","ref":261150519,"role":"outer","missing":true},{"type":"w","ref":261150538,"role":"outer","missing":true},{"type":"w","ref":261150543,"role":"outer","missing":true},{"type":"w","ref":261150546,"role":"outer","missing":true},{"type":"w","ref":261150535,"role":"outer","missing":true},{"type":"w","ref":261150529,"role":"outer","missing":true},{"type":"w","ref":261150545,"role":"outer","missing":true},{"type":"w","ref":261150542,"role":"outer","missing":true},{"type":"w","ref":261150531,"role":"outer","missing":true},{"type":"w","ref":261150544,"role":"outer","missing":true},{"type":"w","ref":261150533,"role":"outer","missing":true},{"type":"w","ref":261150537,"role":"outer","missing":true},{"type":"w","ref":261150539,"role":"outer","missing":true},{"type":"w","ref":261150532,"role":"outer","missing":true},{"type":"w","ref":261150534,"role":"outer","missing":true},{"type":"w","ref":261150536,"role":"outer","missing":true},{"type":"w","ref":261150547,"role":"outer","missing":true},{"type":"w","ref":261150525,"role":"outer","missing":true},{"type":"w","ref":261150530,"role":"outer","missing":true},{"type":"w","ref":261150541,"role":"outer","missing":true},{"type":"w","ref":261150540,"role":"outer","missing":true},{"type":"w","ref":231612946,"role":"outer","missing":true},{"type":"w","ref":231522772,"role":"outer","missing":true},{"type":"w","ref":262267762,"role":"outer","missing":true},{"type":"w","ref":262267818,"role":"outer","missing":true},{"type":"w","ref":262267817,"role":"outer","missing":true}],"missingWayCount":41}}
,
{"message":"Relation missing way members","data":{"id":417844,"name":"Montgomery County","properties":{"name":"Montgomery County","type":"boundary","is_in":"USA, Pennsylvania","boundary":"administrative","wikipedia":"en:Montgomery County, Pennsylvania","admin_level":"6","attribution":"USGS 2001 County Boundary","is_in:state":"Pennsylvania","authoritative":"yes","is_in:country":"USA","nist:fips_code":"42091","nist:state_fips":"42","is_in:iso_3166_2":"US:PA","is_in:state_code":"PA","is_in:country_code":"US"},"members":[{"type":"w","ref":262267769,"role":"outer","missing":true},{"type":"w","ref":262267766,"role":"outer","missing":true},{"type":"w","ref":262267815,"role":"outer","missing":true},{"type":"w","ref":262267829,"role":"outer","missing":true},{"type":"w","ref":262267794,"role":"outer","missing":true},{"type":"w","ref":262267803,"role":"outer","missing":true},{"type":"w","ref":262267799,"role":"outer","missing":true},{"type":"w","ref":262267795,"role":"outer","missing":true},{"type":"w","ref":262267825,"role":"outer","missing":true},{"type":"w","ref":262267819,"role":"outer","missing":true},{"type":"w","ref":230363011,"role":"outer","missing":true},{"type":"w","ref":261150583,"role":"outer","missing":true},{"type":"w","ref":51252460,"role":"outer","missing":true},{"type":"w","ref":230356360,"role":"outer","missing":true},{"type":"w","ref":38491417,"role":"outer","missing":true},{"type":"w","ref":48346968,"role":"outer","missing":true},{"type":"w","ref":38491429,"role":"outer","missing":true},{"type":"w","ref":49990212,"role":"outer","missing":true},{"type":"w","ref":38496992,"role":"outer","missing":true},{"type":"w","ref":52040547,"role":"outer","missing":true},{"type":"w","ref":157462160,"role":"outer","missing":true},{"type":"w","ref":180871433,"role":"outer","missing":true},{"type":"w","ref":229447006,"role":"outer","missing":true},{"type":"w","ref":49650553,"role":"outer","missing":true},{"type":"w","ref":38496874,"role":"outer","missing":true},{"type":"w","ref":38496778,"role":"outer","missing":true},{"type":"w","ref":51252156,"role":"outer","missing":true},{"type":"w","ref":167110990,"role":"outer","missing":true},{"type":"w","ref":167110976,"role":"outer","missing":true},{"type":"w","ref":228875044,"role":"outer","missing":true},{"type":"w","ref":185503973,"role":"outer","missing":true},{"type":"w","ref":296545884,"role":"outer","missing":true},{"type":"w","ref":296505133,"role":"outer","missing":true},{"type":"w","ref":296505131,"role":"outer","missing":true},{"type":"w","ref":185503610,"role":"outer","missing":true},{"type":"w","ref":228173530,"role":"outer","missing":true},{"type":"w","ref":228875040,"role":"outer","missing":true},{"type":"w","ref":229321865,"role":"outer","missing":true},{"type":"w","ref":229321864,"role":"outer","missing":true},{"type":"w","ref":229321851,"role":"outer","missing":true},{"type":"w","ref":228247258,"role":"outer","missing":true},{"type":"w","ref":228247246,"role":"outer","missing":true},{"type":"w","ref":228257771,"role":"outer","missing":true},{"type":"w","ref":228249056,"role":"outer","missing":true},{"type":"w","ref":228257767,"role":"outer","missing":true},{"type":"w","ref":228257770,"role":"outer","missing":true},{"type":"w","ref":231612946,"role":"outer","missing":true},{"type":"w","ref":231522772,"role":"outer","missing":true},{"type":"w","ref":262267762,"role":"outer","missing":true},{"type":"w","ref":262267818,"role":"outer","missing":true},{"type":"w","ref":262267817,"role":"outer","missing":true},{"type":"n","ref":2002218820,"role":"label"},{"type":"n","ref":158363682,"role":"admin_centre"}],"missingWayCount":51}}
,
{"message":"Relation missing way members","data":{"id":417846,"name":"Delaware County","properties":{"name":"Delaware County","type":"boundary","is_in":"USA, Pennsylvania","boundary":"administrative","wikipedia":"en:Delaware County, Pennsylvania","admin_level":"6","attribution":"USGS 2001 County Boundary","border_type":"county","is_in:state":"Pennsylvania","authoritative":"yes","is_in:country":"USA","nist:fips_code":"42045","nist:state_fips":"42","is_in:iso_3166_2":"US:PA","is_in:state_code":"PA","is_in:country_code":"US"},"members":[{"type":"w","ref":229317928,"role":"outer","missing":true},{"type":"w","ref":229317933,"role":"outer","missing":true},{"type":"w","ref":229317930,"role":"outer","missing":true},{"type":"w","ref":51252847,"role":"outer","missing":true},{"type":"w","ref":38487483,"role":"outer","missing":true},{"type":"w","ref":38487448,"role":"outer","missing":true},{"type":"w","ref":38487449,"role":"outer","missing":true},{"type":"w","ref":38487515,"role":"outer","missing":true},{"type":"w","ref":315577679,"role":"outer","missing":true},{"type":"w","ref":38485756,"role":"outer","missing":true},{"type":"w","ref":38485757,"role":"outer","missing":true},{"type":"w","ref":38485925,"role":"outer","missing":true},{"type":"w","ref":38485858,"role":"outer","missing":true},{"type":"w","ref":38487001,"role":"outer","missing":true},{"type":"w","ref":228881578,"role":"outer","missing":true},{"type":"w","ref":38487038,"role":"outer","missing":true},{"type":"w","ref":51252156,"role":"outer","missing":true},{"type":"w","ref":167110990,"role":"outer","missing":true},{"type":"w","ref":167110976,"role":"outer","missing":true},{"type":"w","ref":228875044,"role":"outer","missing":true},{"type":"w","ref":137061173,"role":"outer","missing":true},{"type":"w","ref":137553192,"role":"outer","missing":true},{"type":"w","ref":137530784,"role":"outer","missing":true},{"type":"w","ref":137530778,"role":"outer","missing":true},{"type":"w","ref":137491079,"role":"outer","missing":true},{"type":"w","ref":137486190,"role":"outer","missing":true},{"type":"w","ref":137486238,"role":"outer","missing":true},{"type":"w","ref":137486300,"role":"outer","missing":true},{"type":"w","ref":228318434,"role":"outer","missing":true},{"type":"w","ref":228318431,"role":"outer","missing":true},{"type":"w","ref":229190544,"role":"outer","missing":true},{"type":"w","ref":229190543,"role":"outer","missing":true},{"type":"w","ref":229190535,"role":"outer","missing":true},{"type":"w","ref":229196758,"role":"outer","missing":true},{"type":"w","ref":96321081,"role":"outer","missing":true},{"type":"w","ref":288207917,"role":"outer","missing":true},{"type":"w","ref":96321087,"role":"outer","missing":true},{"type":"w","ref":9650669,"role":"outer","missing":true},{"type":"w","ref":137725546,"role":"outer","missing":true},{"type":"w","ref":137725547,"role":"outer","missing":true},{"type":"w","ref":137725544,"role":"outer","missing":true},{"type":"w","ref":137725545,"role":"outer","missing":true},{"type":"n","ref":316987661,"role":"label"},{"type":"n","ref":158253891,"role":"admin_centre"}],"missingWayCount":42}}
,
{"message":"Relation missing way members","data":{"id":961739,"name":"Hamilton Township","properties":{"name":"Hamilton Township","type":"boundary","is_in":"USA, New Jersey","place":"township","boundary":"administrative","admin_level":"8","border_type":"township","is_in:state":"New Jersey","is_in:county":"Mercer, NJ","is_in:country":"USA","is_in:iso_3166_2":"US:NJ","is_in:state_code":"NJ","is_in:country_code":"US"},"members":[{"type":"w","ref":261150539,"role":"outer","missing":true},{"type":"w","ref":61951825,"role":"outer","missing":true},{"type":"w","ref":61951857,"role":"outer","missing":true},{"type":"w","ref":61951811,"role":"outer","missing":true},{"type":"w","ref":61951854,"role":"outer","missing":true},{"type":"w","ref":62038160,"role":"outer","missing":true},{"type":"w","ref":61951817,"role":"outer","missing":true},{"type":"w","ref":37572244,"role":"outer","missing":true},{"type":"w","ref":37571248,"role":"outer","missing":true},{"type":"w","ref":62037872,"role":"outer","missing":true},{"type":"w","ref":61951819,"role":"outer","missing":true},{"type":"w","ref":61951855,"role":"outer","missing":true},{"type":"w","ref":61951815,"role":"outer","missing":true},{"type":"w","ref":61951822,"role":"outer","missing":true},{"type":"w","ref":61951816,"role":"outer","missing":true}],"missingWayCount":15}}
,
{"message":"Relation missing way members","data":{"id":961740,"name":"Lawrence Township","properties":{"name":"Lawrence Township","type":"boundary","is_in":"USA, New Jersey","place":"township","boundary":"administrative","admin_level":"8","border_type":"township","is_in:state":"New Jersey","is_in:county":"Mercer, NJ","is_in:country":"USA","is_in:iso_3166_2":"US:NJ","is_in:state_code":"NJ","is_in:country_code":"US"},"members":[{"type":"w","ref":61951810,"role":"outer","missing":true},{"type":"w","ref":61951848,"role":"outer","missing":true},{"type":"w","ref":61951812,"role":"outer","missing":true},{"type":"w","ref":61951821,"role":"outer","missing":true},{"type":"w","ref":61951825,"role":"outer","missing":true},{"type":"w","ref":61951820,"role":"outer","missing":true}],"missingWayCount":6}}
,
{"message":"Relation missing way members","data":{"id":961741,"name":"Robbinsville Township","properties":{"name":"Robbinsville Township","type":"boundary","is_in":"USA, New Jersey","place":"township","boundary":"administrative","old_name":"Washington Township","admin_level":"8","border_type":"township","is_in:state":"New Jersey","is_in:county":"Mercer, NJ","is_in:country":"USA","is_in:iso_3166_2":"US:NJ","is_in:state_code":"NJ","is_in:country_code":"US"},"members":[{"type":"w","ref":61951807,"role":"outer","missing":true},{"type":"w","ref":61951854,"role":"outer","missing":true}],"missingWayCount":2}}
,
{"message":"Relation missing way members","data":{"id":961742,"name":"West Windsor Township","properties":{"name":"West Windsor Township","type":"boundary","is_in":"USA, New Jersey","place":"township","boundary":"administrative","admin_level":"8","border_type":"township","is_in:state":"New Jersey","is_in:county":"Mercer, NJ","is_in:country":"USA","is_in:iso_3166_2":"US:NJ","is_in:state_code":"NJ","is_in:country_code":"US"},"members":[{"type":"w","ref":61951821,"role":"outer","missing":true},{"type":"w","ref":61951814,"role":"outer","missing":true},{"type":"w","ref":61951807,"role":"outer","missing":true},{"type":"w","ref":61951811,"role":"outer","missing":true},{"type":"w","ref":61951857,"role":"outer","missing":true}],"missingWayCount":5}}
,
{"message":"Relation missing way members","data":{"id":961743,"name":"Hopewell Township","properties":{"name":"Hopewell Township","type":"boundary","is_in":"USA, New Jersey","place":"township","boundary":"administrative","admin_level":"8","border_type":"township","is_in:state":"New Jersey","is_in:county":"Mercer, NJ","is_in:country":"USA","is_in:iso_3166_2":"US:NJ","is_in:state_code":"NJ","is_in:country_code":"US"},"members":[{"type":"w","ref":261150540,"role":"outer","missing":true},{"type":"w","ref":61951806,"role":"outer","missing":true},{"type":"w","ref":61951848,"role":"outer","missing":true}],"missingWayCount":3}}
,
{"message":"Relation missing way members","data":{"id":961744,"name":"Princeton Township","properties":{"name":"Princeton Township","type":"boundary","is_in":"USA, New Jersey","place":"township","boundary":"administrative","admin_level":"8","border_type":"township","is_in:state":"New Jersey","is_in:county":"Mercer, NJ","is_in:country":"USA","is_in:iso_3166_2":"US:NJ","is_in:state_code":"NJ","is_in:country_code":"US"},"members":[{"type":"w","ref":61951812,"role":"outer","missing":true},{"type":"w","ref":61951814,"role":"outer","missing":true}],"missingWayCount":2}}
,
{"message":"Relation missing way members","data":{"id":961745,"name":"Mercer County","properties":{"name":"Mercer County","type":"boundary","boundary":"administrative","wikipedia":"en:Mercer County, New Jersey","admin_level":"6","is_in:state":"New Jersey","nist:fips_code":"34021","nist:state_fips":"34"},"members":[{"type":"w","ref":261150541,"role":"outer","missing":true},{"type":"w","ref":261150530,"role":"outer","missing":true},{"type":"w","ref":261150525,"role":"outer","missing":true},{"type":"w","ref":261150547,"role":"outer","missing":true},{"type":"w","ref":261150536,"role":"outer","missing":true},{"type":"w","ref":261150534,"role":"outer","missing":true},{"type":"w","ref":261150532,"role":"outer","missing":true},{"type":"w","ref":261150539,"role":"outer","missing":true},{"type":"w","ref":61951822,"role":"outer","missing":true},{"type":"w","ref":61951815,"role":"outer","missing":true},{"type":"w","ref":61951855,"role":"outer","missing":true},{"type":"w","ref":61951819,"role":"outer","missing":true},{"type":"w","ref":62037872,"role":"outer","missing":true},{"type":"w","ref":37571248,"role":"outer","missing":true},{"type":"w","ref":37572244,"role":"outer","missing":true},{"type":"w","ref":61951817,"role":"outer","missing":true},{"type":"w","ref":62038160,"role":"outer","missing":true},{"type":"w","ref":261150540,"role":"outer","missing":true},{"type":"n","ref":316973304,"role":"label"},{"type":"n","ref":158860252,"role":"admin_centre"}],"missingWayCount":18}}
,
{"message":"Relation missing way members","data":{"id":962878,"name":"Winslow Township","properties":{"name":"Winslow Township","type":"boundary","is_in":"USA, New Jersey","place":"township","boundary":"administrative","admin_level":"8","border_type":"township","is_in:state":"New Jersey","is_in:county":"Camden, NJ","is_in:country":"USA","is_in:iso_3166_2":"US:NJ","is_in:state_code":"NJ","is_in:country_code":"US"},"members":[{"type":"w","ref":62014515,"role":"outer","missing":true},{"type":"w","ref":37560632,"role":"outer","missing":true},{"type":"w","ref":62014427,"role":"outer","missing":true},{"type":"w","ref":37573500,"role":"outer","missing":true},{"type":"w","ref":62014508,"role":"outer","missing":true},{"type":"w","ref":62014451,"role":"outer","missing":true},{"type":"w","ref":62014426,"role":"outer","missing":true},{"type":"w","ref":62014429,"role":"outer","missing":true},{"type":"w","ref":62014513,"role":"outer","missing":true},{"type":"w","ref":62014438,"role":"outer","missing":true},{"type":"w","ref":143999017,"role":"","missing":true}],"missingWayCount":11}}
,
{"message":"Relation missing way members","data":{"id":962883,"name":"Camden County","properties":{"name":"Camden County","type":"boundary","boundary":"administrative","wikipedia":"en:Camden County, New Jersey","admin_level":"6","is_in:state":"New Jersey","nist:fips_code":"34007","nist:state_fips":"34"},"members":[{"type":"w","ref":37563440,"role":"outer","missing":true},{"type":"w","ref":37563436,"role":"outer","missing":true},{"type":"w","ref":37568620,"role":"outer","missing":true},{"type":"w","ref":37564743,"role":"outer","missing":true},{"type":"w","ref":37564744,"role":"outer","missing":true},{"type":"w","ref":37564708,"role":"outer","missing":true},{"type":"w","ref":37564706,"role":"outer","missing":true},{"type":"w","ref":37564715,"role":"outer","missing":true},{"type":"w","ref":37568509,"role":"outer","missing":true},{"type":"w","ref":62014446,"role":"outer","missing":true},{"type":"w","ref":62014546,"role":"outer","missing":true},{"type":"w","ref":62014513,"role":"outer","missing":true},{"type":"w","ref":62014438,"role":"outer","missing":true},{"type":"w","ref":62014515,"role":"outer","missing":true},{"type":"w","ref":37560632,"role":"outer","missing":true},{"type":"w","ref":62014503,"role":"outer","missing":true},{"type":"w","ref":62037922,"role":"outer","missing":true},{"type":"w","ref":62037768,"role":"outer","missing":true},{"type":"w","ref":62014478,"role":"outer","missing":true},{"type":"w","ref":62014464,"role":"outer","missing":true},{"type":"w","ref":62014435,"role":"outer","missing":true},{"type":"w","ref":62014473,"role":"outer","missing":true},{"type":"w","ref":37570207,"role":"outer","missing":true},{"type":"w","ref":37570132,"role":"outer","missing":true},{"type":"w","ref":37570339,"role":"outer","missing":true},{"type":"w","ref":37570340,"role":"outer","missing":true},{"type":"w","ref":37570342,"role":"outer","missing":true},{"type":"w","ref":37570343,"role":"outer","missing":true},{"type":"w","ref":37571408,"role":"outer","missing":true},{"type":"w","ref":62037814,"role":"outer","missing":true},{"type":"w","ref":37563527,"role":"outer","missing":true},{"type":"n","ref":316973291,"role":"label"},{"type":"n","ref":158518631,"role":"admin_centre"}],"missingWayCount":31}}
,
{"message":"Relation missing way members","data":{"id":963126,"name":"Woodland Township","properties":{"name":"Woodland Township","type":"boundary","is_in":"USA, New Jersey","place":"township","boundary":"administrative","admin_level":"8","border_type":"township","is_in:state":"New Jersey","is_in:county":"Burlington, NJ","is_in:country":"USA","is_in:iso_3166_2":"US:NJ","is_in:state_code":"NJ","is_in:country_code":"US"},"members":[{"type":"w","ref":62038147,"role":"outer","missing":true},{"type":"w","ref":62037767,"role":"outer","missing":true}],"missingWayCount":2}}
,
{"message":"Relation missing way members","data":{"id":963131,"name":"Shamong Township","properties":{"name":"Shamong Township","type":"boundary","is_in":"USA, New Jersey","place":"township","boundary":"administrative","admin_level":"8","border_type":"township","is_in:state":"New Jersey","is_in:county":"Burlington, NJ","is_in:country":"USA","is_in:iso_3166_2":"US:NJ","is_in:state_code":"NJ","is_in:country_code":"US"},"members":[{"type":"w","ref":62037789,"role":"outer","missing":true},{"type":"w","ref":62037870,"role":"outer","missing":true},{"type":"w","ref":62037955,"role":"outer","missing":true},{"type":"w","ref":62014466,"role":"outer","missing":true},{"type":"w","ref":62037922,"role":"outer","missing":true}],"missingWayCount":5}}
,
{"message":"Relation missing way members","data":{"id":963132,"name":"Southampton Township","properties":{"name":"Southampton Township","type":"boundary","is_in":"USA, New Jersey","place":"township","boundary":"administrative","admin_level":"8","border_type":"township","is_in:state":"New Jersey","is_in:county":"Burlington, NJ","is_in:country":"USA","is_in:iso_3166_2":"US:NJ","is_in:state_code":"NJ","is_in:country_code":"US"},"members":[{"type":"w","ref":62037767,"role":"outer","missing":true},{"type":"w","ref":62037762,"role":"outer","missing":true},{"type":"w","ref":62038104,"role":"outer","missing":true},{"type":"w","ref":62037942,"role":"outer","missing":true},{"type":"w","ref":62037868,"role":"outer","missing":true},{"type":"w","ref":62038109,"role":"outer","missing":true}],"missingWayCount":6}}
,
{"message":"Relation missing way members","data":{"id":963139,"name":"Washington Township","properties":{"name":"Washington Township","type":"boundary","is_in":"USA, New Jersey","place":"township","boundary":"administrative","admin_level":"8","border_type":"township","is_in:state":"New Jersey","is_in:county":"Burlington, NJ","is_in:country":"USA","is_in:iso_3166_2":"US:NJ","is_in:state_code":"NJ","is_in:country_code":"US"},"members":[{"type":"w","ref":62038118,"role":"outer","missing":true},{"type":"w","ref":62037965,"role":"outer","missing":true},{"type":"w","ref":62037955,"role":"outer","missing":true}],"missingWayCount":3}}
,
{"message":"Relation missing way members","data":{"id":3115076,"name":"New Hanover Township","properties":{"name":"New Hanover Township","type":"boundary","boundary":"administrative","wikipedia":"en:New Hanover Township, Montgomery County, Pennsylvania","admin_level":"8","border_type":"township"},"members":[{"type":"w","ref":232052017,"role":"outer","missing":true},{"type":"w","ref":228268896,"role":"outer","missing":true},{"type":"w","ref":228268893,"role":"outer","missing":true}],"missingWayCount":3}}
,
{"message":"Relation missing way members","data":{"id":963146,"name":"Tabernacle Township","properties":{"name":"Tabernacle Township","type":"boundary","is_in":"USA, New Jersey","place":"township","boundary":"administrative","admin_level":"8","border_type":"township","is_in:state":"New Jersey","is_in:county":"Burlington, NJ","is_in:country":"USA","is_in:iso_3166_2":"US:NJ","is_in:state_code":"NJ","is_in:country_code":"US"},"members":[{"type":"w","ref":62038109,"role":"outer","missing":true},{"type":"w","ref":62038126,"role":"outer","missing":true},{"type":"w","ref":62037870,"role":"outer","missing":true},{"type":"w","ref":62038147,"role":"outer","missing":true}],"missingWayCount":4}}
,
{"message":"Relation missing way members","data":{"id":963150,"name":"Pemberton Township","properties":{"name":"Pemberton Township","type":"boundary","is_in":"USA, New Jersey","place":"township","boundary":"administrative","admin_level":"8","border_type":"township","is_in:state":"New Jersey","is_in:county":"Burlington, NJ","is_in:country":"USA","is_in:iso_3166_2":"US:NJ","is_in:state_code":"NJ","is_in:country_code":"US"},"members":[{"type":"w","ref":62037762,"role":"outer","missing":true},{"type":"w","ref":62038006,"role":"outer","missing":true},{"type":"w","ref":62038115,"role":"outer","missing":true},{"type":"w","ref":37563347,"role":"outer","missing":true},{"type":"w","ref":62038127,"role":"outer","missing":true},{"type":"w","ref":62038132,"role":"outer","missing":true},{"type":"w","ref":37563391,"role":"inner","missing":true},{"type":"w","ref":37563392,"role":"inner","missing":true}],"missingWayCount":8}}
,
{"message":"Relation missing way members","data":{"id":963151,"name":"Chesterfield Township","properties":{"name":"Chesterfield Township","type":"boundary","is_in":"USA, New Jersey","place":"township","boundary":"administrative","admin_level":"8","border_type":"township","is_in:state":"New Jersey","is_in:county":"Burlington, NJ","is_in:country":"USA","is_in:iso_3166_2":"US:NJ","is_in:state_code":"NJ","is_in:country_code":"US"},"members":[{"type":"w","ref":62038020,"role":"outer","missing":true},{"type":"w","ref":62037764,"role":"outer","missing":true},{"type":"w","ref":62038160,"role":"outer","missing":true},{"type":"w","ref":61951817,"role":"outer","missing":true},{"type":"w","ref":37572244,"role":"outer","missing":true},{"type":"w","ref":37571248,"role":"outer","missing":true},{"type":"w","ref":62038112,"role":"outer","missing":true}],"missingWayCount":7}}
,
{"message":"Relation missing way members","data":{"id":963152,"name":"Burlington County","properties":{"name":"Burlington County","type":"boundary","boundary":"administrative","wikipedia":"en:Burlington County, New Jersey","admin_level":"6","is_in:state":"New Jersey","nist:fips_code":"34005","nist:state_fips":"34"},"members":[{"type":"w","ref":261150527,"role":"outer","missing":true},{"type":"w","ref":261150519,"role":"outer","missing":true},{"type":"w","ref":261150538,"role":"outer","missing":true},{"type":"w","ref":261150543,"role":"outer","missing":true},{"type":"w","ref":261150546,"role":"outer","missing":true},{"type":"w","ref":261150535,"role":"outer","missing":true},{"type":"w","ref":261150529,"role":"outer","missing":true},{"type":"w","ref":261150545,"role":"outer","missing":true},{"type":"w","ref":261150542,"role":"outer","missing":true},{"type":"w","ref":261150531,"role":"outer","missing":true},{"type":"w","ref":261150544,"role":"outer","missing":true},{"type":"w","ref":261150533,"role":"outer","missing":true},{"type":"w","ref":261150537,"role":"outer","missing":true},{"type":"w","ref":61951855,"role":"outer","missing":true},{"type":"w","ref":61951819,"role":"outer","missing":true},{"type":"w","ref":62037872,"role":"outer","missing":true},{"type":"w","ref":37571248,"role":"outer","missing":true},{"type":"w","ref":37572244,"role":"outer","missing":true},{"type":"w","ref":61951817,"role":"outer","missing":true},{"type":"w","ref":62038160,"role":"outer","missing":true},{"type":"w","ref":62038118,"role":"outer","missing":true},{"type":"w","ref":62037965,"role":"outer","missing":true},{"type":"w","ref":62014466,"role":"outer","missing":true},{"type":"w","ref":62037922,"role":"outer","missing":true},{"type":"w","ref":62037768,"role":"outer","missing":true},{"type":"w","ref":62014478,"role":"outer","missing":true},{"type":"w","ref":62014464,"role":"outer","missing":true},{"type":"w","ref":62014435,"role":"outer","missing":true},{"type":"w","ref":62014473,"role":"outer","missing":true},{"type":"w","ref":37570207,"role":"outer","missing":true},{"type":"w","ref":37570132,"role":"outer","missing":true},{"type":"w","ref":37570339,"role":"outer","missing":true},{"type":"w","ref":37570340,"role":"outer","missing":true},{"type":"w","ref":37570342,"role":"outer","missing":true},{"type":"w","ref":37570343,"role":"outer","missing":true},{"type":"w","ref":37571408,"role":"outer","missing":true},{"type":"w","ref":62037814,"role":"outer","missing":true},{"type":"w","ref":37563527,"role":"outer","missing":true},{"type":"w","ref":37563440,"role":"outer","missing":true},{"type":"w","ref":37563390,"role":"outer","missing":true},{"type":"w","ref":37563389,"role":"outer","missing":true},{"type":"w","ref":62037790,"role":"outer","missing":true},{"type":"w","ref":62037785,"role":"outer","missing":true},{"type":"w","ref":62038017,"role":"outer","missing":true},{"type":"w","ref":61951822,"role":"outer","missing":true},{"type":"w","ref":61951815,"role":"outer","missing":true},{"type":"n","ref":158805930,"role":"admin_centre"},{"type":"n","ref":2002218813,"role":"label"}],"missingWayCount":46}}
,
{"message":"Relation missing way members","data":{"id":1245077,"name":"New Castle County","properties":{"name":"New Castle County","type":"boundary","source":"county_import_v0.1_20080508235458","boundary":"administrative","wikipedia":"en:New Castle County, Delaware","admin_level":"6","border_type":"county","nist:fips_code":"10003","nist:state_fips":"10"},"members":[{"type":"w","ref":229190544,"role":"outer","missing":true},{"type":"w","ref":229190543,"role":"outer","missing":true},{"type":"w","ref":229190535,"role":"outer","missing":true},{"type":"w","ref":229196758,"role":"outer","missing":true},{"type":"w","ref":96321081,"role":"outer","missing":true},{"type":"w","ref":288207917,"role":"outer","missing":true},{"type":"w","ref":96321087,"role":"outer","missing":true},{"type":"w","ref":9650669,"role":"outer","missing":true},{"type":"w","ref":138382403,"role":"outer","missing":true},{"type":"w","ref":170060123,"role":"outer","missing":true},{"type":"w","ref":170117274,"role":"outer","missing":true},{"type":"w","ref":170117278,"role":"outer","missing":true},{"type":"w","ref":170060124,"role":"outer","missing":true},{"type":"w","ref":9650692,"role":"outer","missing":true},{"type":"n","ref":158617637,"role":"admin_centre"}],"missingWayCount":14}}
,
{"message":"Relation missing way members","data":{"id":1852584,"name":"Westtown Township","properties":{"name":"Westtown Township","type":"boundary","boundry":"administrative","boundary":"administrative","admin_level":"8","border_type":"township"},"members":[{"type":"w","ref":228251074,"role":"outer","missing":true},{"type":"w","ref":228251070,"role":"outer","missing":true},{"type":"w","ref":189259312,"role":"outer","missing":true},{"type":"w","ref":137486238,"role":"outer","missing":true},{"type":"w","ref":137486300,"role":"outer","missing":true},{"type":"w","ref":137486237,"role":"outer","missing":true},{"type":"w","ref":228251570,"role":"outer","missing":true}],"missingWayCount":7}}
,
{"message":"Relation missing way members","data":{"id":1863173,"name":"Salem County","properties":{"name":"Salem County","type":"boundary","boundary":"administrative","wikipedia":"en:Salem County, New Jersey","admin_level":"6","border_type":"county","nist:fips_code":"34033","nist:state_fips":"34"},"members":[{"type":"w","ref":9650692,"role":"outer","missing":true},{"type":"w","ref":170060123,"role":"outer","missing":true},{"type":"w","ref":170117274,"role":"outer","missing":true},{"type":"w","ref":170117278,"role":"outer","missing":true},{"type":"w","ref":170060124,"role":"outer","missing":true},{"type":"w","ref":229899823,"role":"outer","missing":true}],"missingWayCount":6}}
,
{"message":"Relation missing way members","data":{"id":2560066,"name":"Atlantic County","properties":{"name":"Atlantic County","type":"boundary","boundary":"administrative","wikipedia":"en:Atlantic County, New Jersey","admin_level":"6","border_type":"county","nist:fips_code":"34001","nist:state_fips":"34"},"members":[{"type":"w","ref":62038118,"role":"outer","missing":true},{"type":"w","ref":62037965,"role":"outer","missing":true},{"type":"w","ref":62014466,"role":"outer","missing":true},{"type":"w","ref":62014503,"role":"outer","missing":true},{"type":"w","ref":37560632,"role":"outer","missing":true}],"missingWayCount":5}}
,
{"message":"Relation missing way members","data":{"id":2560068,"name":"Gloucester County","properties":{"name":"Gloucester County","type":"boundary","boundary":"administrative","wikipedia":"en:Gloucester County, New Jersey","admin_level":"6","nist:fips_code":"34015","nist:state_fips":"34"},"members":[{"type":"w","ref":62014515,"role":"outer","missing":true},{"type":"w","ref":62014438,"role":"outer","missing":true},{"type":"w","ref":62014513,"role":"outer","missing":true},{"type":"w","ref":62014546,"role":"outer","missing":true},{"type":"w","ref":62014446,"role":"outer","missing":true},{"type":"w","ref":37568509,"role":"outer","missing":true},{"type":"w","ref":37564715,"role":"outer","missing":true},{"type":"w","ref":37564706,"role":"outer","missing":true},{"type":"w","ref":37564708,"role":"outer","missing":true},{"type":"w","ref":37564744,"role":"outer","missing":true},{"type":"w","ref":62014428,"role":"outer","missing":true},{"type":"w","ref":62014474,"role":"outer","missing":true},{"type":"w","ref":62014514,"role":"outer","missing":true},{"type":"w","ref":62014574,"role":"outer","missing":true},{"type":"w","ref":51252847,"role":"outer","missing":true},{"type":"w","ref":229317930,"role":"outer","missing":true},{"type":"w","ref":229317933,"role":"outer","missing":true},{"type":"w","ref":229317928,"role":"outer","missing":true},{"type":"w","ref":137725545,"role":"outer","missing":true},{"type":"w","ref":137725544,"role":"outer","missing":true},{"type":"w","ref":137725547,"role":"outer","missing":true},{"type":"w","ref":137725546,"role":"outer","missing":true},{"type":"w","ref":138382403,"role":"outer","missing":true},{"type":"w","ref":229899823,"role":"outer","missing":true},{"type":"n","ref":158570148,"role":"admin_centre"},{"type":"n","ref":316973292,"role":"label"}],"missingWayCount":24}}
,
{"message":"Relation missing way members","data":{"id":3048300,"name":"Charlestown Township","properties":{"name":"Charlestown Township","type":"boundary","boundary":"administrative","wikipedia":"en:Charlestown Township, Chester County, Pennsylvania","admin_level":"8"},"members":[{"type":"w","ref":228175114,"role":"outer","missing":true},{"type":"w","ref":228247245,"role":"outer","missing":true},{"type":"w","ref":228249059,"role":"outer","missing":true},{"type":"w","ref":228175116,"role":"outer","missing":true}],"missingWayCount":4}}
,
{"message":"Relation missing way members","data":{"id":3048301,"name":"East Whiteland Township","properties":{"name":"East Whiteland Township","type":"boundary","boundary":"administrative","wikipedia":"en:East Whiteland Township, Chester County, Pennsylvania","admin_level":"8"},"members":[{"type":"w","ref":228175111,"role":"outer","missing":true},{"type":"w","ref":228175117,"role":"outer","missing":true},{"type":"w","ref":228175116,"role":"outer","missing":true},{"type":"w","ref":228173531,"role":"outer","missing":true},{"type":"w","ref":228173534,"role":"outer","missing":true},{"type":"w","ref":228175112,"role":"outer","missing":true}],"missingWayCount":6}}
,
{"message":"Relation missing way members","data":{"id":3049095,"name":"East Pikeland Township","properties":{"name":"East Pikeland Township","type":"boundary","boundary":"administrative","wikipedia":"en:East Pikeland Township, Chester County, Pennsylvania","admin_level":"8"},"members":[{"type":"w","ref":228255337,"role":"outer","missing":true},{"type":"w","ref":228249058,"role":"outer","missing":true},{"type":"w","ref":228247246,"role":"outer","missing":true},{"type":"w","ref":228247251,"role":"outer","missing":true},{"type":"w","ref":228247255,"role":"outer","missing":true},{"type":"w","ref":228247254,"role":"outer","missing":true},{"type":"w","ref":228247264,"role":"outer","missing":true},{"type":"w","ref":228249059,"role":"outer","missing":true}],"missingWayCount":8}}
,
{"message":"Relation missing way members","data":{"id":3049115,"name":"East Goshen Township","properties":{"name":"East Goshen Township","type":"boundary","boundary":"administrative","wikipedia":"en:East Goshen Township, Chester County, Pennsylvania","admin_level":"8"},"members":[{"type":"w","ref":228175117,"role":"outer","missing":true},{"type":"w","ref":228175115,"role":"outer","missing":true},{"type":"w","ref":228251070,"role":"outer","missing":true},{"type":"w","ref":228251073,"role":"outer","missing":true},{"type":"w","ref":228251072,"role":"outer","missing":true}],"missingWayCount":5}}
,
{"message":"Relation missing way members","data":{"id":3049118,"name":"West Goshen Township","properties":{"name":"West Goshen Township","type":"boundary","boundary":"administrative","wikipedia":"en:West Goshen Township, Chester County, Pennsylvania","admin_level":"8"},"members":[{"type":"w","ref":228251570,"role":"outer","missing":true},{"type":"w","ref":228251074,"role":"outer","missing":true},{"type":"w","ref":228251073,"role":"outer","missing":true},{"type":"w","ref":228251072,"role":"outer","missing":true}],"missingWayCount":4}}
,
{"message":"Relation missing way members","data":{"id":3049218,"name":"East Vincent Township","properties":{"name":"East Vincent Township","type":"boundary","boundary":"administrative","wikipedia":"en:East Vincent Township, Chester County, Pennsylvania","admin_level":"8"},"members":[{"type":"w","ref":228257770,"role":"outer","missing":true},{"type":"w","ref":228257767,"role":"outer","missing":true},{"type":"w","ref":228249060,"role":"outer","missing":true},{"type":"w","ref":228255337,"role":"outer","missing":true}],"missingWayCount":4}}
,
{"message":"Relation missing way members","data":{"id":3049306,"name":"Limerick Township","properties":{"name":"Limerick Township","type":"boundary","boundary":"administrative","wikipedia":"en:Limerick Township, Montgomery County, Pennsylvania","admin_level":"8"},"members":[{"type":"w","ref":228268907,"role":"outer","missing":true},{"type":"w","ref":228268844,"role":"outer","missing":true},{"type":"w","ref":228268896,"role":"outer","missing":true},{"type":"w","ref":232052012,"role":"outer","missing":true},{"type":"w","ref":232051326,"role":"outer","missing":true},{"type":"w","ref":229438974,"role":"outer","missing":true},{"type":"w","ref":229321844,"role":"outer","missing":true},{"type":"w","ref":228257766,"role":"outer","missing":true},{"type":"w","ref":228257770,"role":"outer","missing":true}],"missingWayCount":9}}
,
{"message":"Relation missing way members","data":{"id":3049307,"name":"Lower Pottsgrove Township","properties":{"name":"Lower Pottsgrove Township","type":"boundary","boundary":"administrative","wikipedia":"en:Lower Pottsgrove Township, Montgomery County, Pennsylvania","admin_level":"8"},"members":[{"type":"w","ref":228268907,"role":"outer","missing":true},{"type":"w","ref":228268844,"role":"outer","missing":true},{"type":"w","ref":228268893,"role":"outer","missing":true}],"missingWayCount":3}}
,
{"message":"Relation missing way members","data":{"id":3057684,"name":"Birmingham Township","properties":{"name":"Birmingham Township","type":"boundary","boundary":"administrative","wikipedia":"en:Birmingham Township, Chester County, Pennsylvania","admin_level":"8","border_type":"township"},"members":[{"type":"w","ref":228318431,"role":"outer","missing":true},{"type":"w","ref":228318433,"role":"outer","missing":true}],"missingWayCount":2}}
,
{"message":"Relation missing way members","data":{"id":3072845,"name":"Chadds Ford Township","properties":{"name":"Chadds Ford Township","type":"boundary","boundary":"administrative","wikipedia":"en:Chadds Ford Township, Delaware County, Pennsylvania","admin_level":"8","border_type":"township"},"members":[{"type":"w","ref":228318431,"role":"outer","missing":true},{"type":"w","ref":229190544,"role":"outer","missing":true},{"type":"w","ref":229190540,"role":"outer","missing":true},{"type":"w","ref":229190536,"role":"outer","missing":true}],"missingWayCount":4}}
,
{"message":"Relation missing way members","data":{"id":3072996,"name":"Lower Chichester Township","properties":{"name":"Lower Chichester Township","type":"boundary","boundary":"administrative","wikipedia":"en:Lower Chichester Township, Delaware County, Pennsylvania","admin_level":"8","border_type":"township"},"members":[{"type":"w","ref":96321081,"role":"outer","missing":true},{"type":"w","ref":288207917,"role":"outer","missing":true},{"type":"w","ref":96321087,"role":"outer","missing":true},{"type":"w","ref":96321088,"role":"outer","missing":true},{"type":"w","ref":38486089,"role":"outer","missing":true},{"type":"w","ref":38486149,"role":"outer","missing":true},{"type":"w","ref":38486148,"role":"outer","missing":true},{"type":"w","ref":288143383,"role":"outer","missing":true},{"type":"w","ref":229196759,"role":"outer","missing":true},{"type":"w","ref":288142165,"role":"outer","missing":true}],"missingWayCount":10}}
,
{"message":"Relation missing way members","data":{"id":3107904,"name":"Franconia Township","properties":{"name":"Franconia Township","type":"boundary","boundary":"administrative","wikipedia":"en:Franconia Township, Montgomery County, Pennsylvania","admin_level":"8","border_type":"township"},"members":[{"type":"w","ref":231612945,"role":"outer","missing":true},{"type":"w","ref":231613470,"role":"outer","missing":true},{"type":"w","ref":231612948,"role":"outer","missing":true},{"type":"w","ref":231522771,"role":"outer","missing":true},{"type":"w","ref":231612946,"role":"outer","missing":true},{"type":"w","ref":231612944,"role":"outer","missing":true}],"missingWayCount":6}}
,
{"message":"Relation missing way members","data":{"id":3107913,"name":"Upper Salford Township","properties":{"name":"Upper Salford Township","type":"boundary","boundary":"administrative","wikipedia":"en:Upper Salford Township, Montgomery County, Pennsylvania","admin_level":"8","border_type":"township"},"members":[{"type":"w","ref":229438981,"role":"outer","missing":true},{"type":"w","ref":231613471,"role":"outer","missing":true},{"type":"w","ref":231613470,"role":"outer","missing":true},{"type":"w","ref":231613879,"role":"outer","missing":true},{"type":"w","ref":231613881,"role":"outer","missing":true},{"type":"w","ref":232051325,"role":"outer","missing":true}],"missingWayCount":6}}
,
{"message":"Relation missing way members","data":{"id":3115056,"name":"Lower Frederick","properties":{"name":"Lower Frederick","type":"boundary","boundary":"administrative","wikipedia":"en:Lower Frederick Township, Montgomery County, Pennsylvania","admin_level":"8","border_type":"township"},"members":[{"type":"w","ref":232051328,"role":"outer","missing":true},{"type":"w","ref":229438976,"role":"outer","missing":true},{"type":"w","ref":232051326,"role":"outer","missing":true},{"type":"w","ref":232051324,"role":"outer","missing":true},{"type":"w","ref":231613879,"role":"outer","missing":true},{"type":"w","ref":231613881,"role":"outer","missing":true},{"type":"w","ref":232051325,"role":"outer","missing":true}],"missingWayCount":7}}
,
{"message":"Relation missing way members","data":{"id":3115066,"name":"Upper Frederick Township","properties":{"name":"Upper Frederick Township","type":"boundary","boundary":"administrative","wikipedia":"en:Upper Frederick Township, Montgomery County, Pennsylvania","admin_level":"8","border_type":"township"},"members":[{"type":"w","ref":232052017,"role":"outer","missing":true},{"type":"w","ref":232051324,"role":"outer","missing":true},{"type":"w","ref":232052012,"role":"outer","missing":true}],"missingWayCount":3}}
,
{"message":"Relation missing way members","data":{"id":3506001,"name":"Buckingham Township","properties":{"name":"Buckingham Township","type":"boundary","alt_name":"Buckingham","boundary":"administrative","wikipedia":"en:Buckingham Township, Bucks County, Pennsylvania","admin_level":"8","border_type":"township"},"members":[{"type":"w","ref":262267775,"role":"outer","missing":true},{"type":"w","ref":261150548,"role":"outer","missing":true},{"type":"w","ref":261150598,"role":"outer","missing":true},{"type":"w","ref":261127706,"role":"outer","missing":true}],"missingWayCount":4}}
,
{"message":"Relation missing way members","data":{"id":3506338,"name":"Upper Makefield Townshp","properties":{"name":"Upper Makefield Townshp","type":"boundary","alt_name":"Upper Makefield","boundary":"administrative","admin_level":"8","border_type":"township"},"members":[{"type":"w","ref":261127706,"role":"outer","missing":true},{"type":"w","ref":261150576,"role":"outer","missing":true},{"type":"w","ref":261150578,"role":"outer","missing":true},{"type":"w","ref":261150550,"role":"outer","missing":true},{"type":"w","ref":261150541,"role":"outer","missing":true},{"type":"w","ref":261150540,"role":"outer","missing":true}],"missingWayCount":6}}
,
{"message":"Relation missing way members","data":{"id":3521475,"name":"Doylestown Township","properties":{"name":"Doylestown Township","type":"boundary","alt_name":"Doylestown","boundary":"administrative","wikipedia":"en:Doylestown Township, Bucks County, Pennsylvania","admin_level":"8","border_type":"township"},"members":[{"type":"w","ref":262267836,"role":"outer","missing":true},{"type":"w","ref":262267807,"role":"outer","missing":true},{"type":"w","ref":262267830,"role":"outer","missing":true},{"type":"w","ref":262267838,"role":"outer","missing":true},{"type":"w","ref":262267792,"role":"outer","missing":true},{"type":"w","ref":262267811,"role":"outer","missing":true},{"type":"w","ref":262267775,"role":"outer","missing":true}],"missingWayCount":7}}
,
{"message":"Relation missing way members","data":{"id":3521476,"name":"New Britain Township","properties":{"name":"New Britain Township","type":"boundary","alt_name":"New Britain","boundary":"administrative","wikipedia":"en:New Britain Township, Bucks County, Pennsylvania","admin_level":"8","border_type":"township"},"members":[{"type":"w","ref":262267810,"role":"outer","missing":true},{"type":"w","ref":262267814,"role":"outer","missing":true},{"type":"w","ref":262267785,"role":"outer","missing":true},{"type":"w","ref":262267834,"role":"outer","missing":true},{"type":"w","ref":262267838,"role":"outer","missing":true},{"type":"w","ref":262267760,"role":"outer","missing":true},{"type":"w","ref":262267835,"role":"outer","missing":true},{"type":"w","ref":262267817,"role":"outer","missing":true},{"type":"w","ref":262267818,"role":"outer","missing":true},{"type":"w","ref":262267762,"role":"outer","missing":true},{"type":"w","ref":262267805,"role":"outer","missing":true},{"type":"w","ref":262267807,"role":"outer","missing":true},{"type":"w","ref":262267821,"role":"outer","missing":true},{"type":"w","ref":262267778,"role":"outer","missing":true}],"missingWayCount":14}}
,
{"message":"Relation missing way members","data":{"id":3521487,"name":"Hilltown Township","properties":{"name":"Hilltown Township","type":"boundary","alt_name":"Hilltown","boundary":"administrative","wikipedia":"en:Hilltown Township, Bucks County, Pennsylvania","admin_level":"8","border_type":"township"},"members":[{"type":"w","ref":262267805,"role":"outer","missing":true},{"type":"w","ref":231522772,"role":"outer","missing":true},{"type":"w","ref":231612946,"role":"outer","missing":true}],"missingWayCount":3}}
,
{"message":"Relation missing way members","data":{"id":3822218,"name":"Linwood","properties":{"name":"Linwood","type":"boundary","place":"village","boundary":"administrative","admin_level":"7","border_type":"village"},"members":[{"type":"w","ref":288148410,"role":"outer","missing":true},{"type":"w","ref":96321088,"role":"outer","missing":true},{"type":"w","ref":38486089,"role":"outer","missing":true},{"type":"w","ref":38486149,"role":"","missing":true},{"type":"w","ref":38486148,"role":"outer","missing":true},{"type":"w","ref":288143383,"role":"outer","missing":true},{"type":"w","ref":288143384,"role":"outer","missing":true},{"type":"w","ref":288142166,"role":"outer","missing":true},{"type":"w","ref":260986935,"role":"outer","missing":true},{"type":"n","ref":157544611,"role":"label"}],"missingWayCount":9}}
]
